{"type": "FeatureCollection", "features": [ {"type": "Feature", "properties": {"norad_id": 33779, "name": "COSMOS 2251 DEB", "group": "cosmos-2251-debris", "lat": -61.88941603224353, "lon": 7.8431797313405, "alt_km": 659.7982766269797, "timestamp": "2025-12-20T14:38:02.361568+00:00", "meta": {"OBJECT_NAME": "COSMOS 2251 DEB", "OBJECT_ID": "1993-036U", "EPOCH": "2025-12-19T19:52:05.280096", "MEAN_MOTION": 14.70612577, "ECCENTRICITY": 0.00164465, "INCLINATION": 74.0442, "RA_OF_ASC_NODE": 156.9758, "ARG_OF_PERICENTER": 189.895, "MEAN_ANOMALY": 238.5503, "EPHEMERIS_TYPE": 0, "CLASSIFICATION_TYPE": "U", "NORAD_CAT_ID": 33779, "ELEMENT_SET_NO": 999, "REV_AT_EPOCH": 88632, "BSTAR": 0.0015347179, "MEAN_MOTION_DOT": 9.334e-05, "MEAN_MOTION_DDOT": 0}, "tle": {"line1": "1 33779U 93036U   25353.82783889  .00009334  00000+0  15347-2 0  9991", "line2": "2 33779  74.0442 156.9758 0016446 189.8950 238.5503 14.70612577886327"}}, "geometry": {"type": "Point", "coordinates": [7.8431797313405, -61.88941603224353]}}, {"type": "Feature", "properties": {"norad_id": 33782, "name": "COSMOS 2251 DEB", "group": "cosmos-2251-debris", "lat": -52.241283997678195, "lon": 104.68618791406169, "alt_km": 763.9176699697236, "timestamp": "2025-12-20T14:38:02.361578+00:00", "meta": {"OBJECT_NAME": "COSMOS 2251 DEB", "OBJECT_ID": "1993-036X", "EPOCH": "2025-12-20T05:58:18.713280", "MEAN_MOTION": 14.40465426, "ECCENTRICITY": 0.00210177, "INCLINATION": 74.0331, "RA_OF_ASC_NODE": 263.6592, "ARG_OF_PERICENTER": 327.4695, "MEAN_ANOMALY": 197.1536, "EPHEMERIS_TYPE": 0, "CLASSIFICATION_TYPE": "U", "NORAD_CAT_ID": 33782, "ELEMENT_SET_NO": 999, "REV_AT_EPOCH": 88234, "BSTAR": 0.00026979851, "MEAN_MOTION_DOT": 8.33e-06, "MEAN_MOTION_DDOT": 0}, "tle": {"line1": "1 33782U 93036X   25354.24882770  .00000833  00000+0  26980-3 0  9992", "line2": "2 33782  74.0331 263.6592 0021017 327.4695 197.1536 14.40465426882346"}}, "geometry": {"type": "Point", "coordinates": [104.68618791406169, -52.241283997678195]}}, {"type": "Feature", "properties": {"norad_id": 33785, "name": "COSMOS 2251 DEB", "group": "cosmos-2251-debris", "lat": -38.590503198765745, "lon": -122.14697092333677, "alt_km": 673.6336907479608, "timestamp": "2025-12-20T14:38:02.361589+00:00", "meta": {"OBJECT_NAME": "COSMOS 2251 DEB", "OBJECT_ID": "1993-036AA", "EPOCH": "2025-12-20T05:44:54.089952", "MEAN_MOTION": 14.70640305, "ECCENTRICITY": 0.00229831, "INCLINATION": 73.8671, "RA_OF_ASC_NODE": 45.2235, "ARG_OF_PERICENTER": 343.1439, "MEAN_ANOMALY": 78.1427, "EPHEMERIS_TYPE": 0, "CLASSIFICATION_TYPE": "U", "NORAD_CAT_ID": 33785, "ELEMENT_SET_NO": 999, "REV_AT_EPOCH": 88617, "BSTAR": 0.0012149323, "MEAN_MOTION_DOT": 7.398e-05, "MEAN_MOTION_DDOT": 0}, "tle": {"line1": "1 33785U 93036AA  25354.23951493  .00007398  00000+0  12149-2 0  9997", "line2": "2 33785  73.8671  45.2235 0022983 343.1439  78.1427 14.70640305886171"}}, "geometry": {"type": "Point", "coordinates": [-122.14697092333677, -38.590503198765745]}}, {"type": "Feature", "properties": {"norad_id": 33789, "name": "COSMOS 2251 DEB", "group": "cosmos-2251-debris", "lat": -61.469137048812954, "lon": -74.24640066418954, "alt_km": 843.7571249094553, "timestamp": "2025-12-20T14:38:02.361599+00:00", "meta": {"OBJECT_NAME": "COSMOS 2251 DEB", "OBJECT_ID": "1993-036AE", "EPOCH": "2025-12-20T04:58:03.256896", "MEAN_MOTION": 13.88811292, "ECCENTRICITY": 0.0239851, "INCLINATION": 74.0645, "RA_OF_ASC_NODE": 74.7332, "ARG_OF_PERICENTER": 188.7205, "MEAN_ANOMALY": 201.9959, "EPHEMERIS_TYPE": 0, "CLASSIFICATION_TYPE": "U", "NORAD_CAT_ID": 33789, "ELEMENT_SET_NO": 999, "REV_AT_EPOCH": 85199, "BSTAR": 0.00048673288, "MEAN_MOTION_DOT": 7.17e-06, "MEAN_MOTION_DDOT": 0}, "tle": {"line1": "1 33789U 93036AE  25354.20698214  .00000717  00000+0  48673-3 0  9997", "line2": "2 33789  74.0645  74.7332 0239851 188.7205 201.9959 13.88811292851993"}}, "geometry": {"type": "Point", "coordinates": [-74.24640066418954, -61.469137048812954]}}, {"type": "Feature", "properties": {"norad_id": 33791, "name": "COSMOS 2251 DEB", "group": "cosmos-2251-debris", "lat": -33.962345784720256, "lon": -145.8977045869309, "alt_km": 732.3861276326406, "timestamp": "2025-12-20T14:38:02.361609+00:00", "meta": {"OBJECT_NAME": "COSMOS 2251 DEB", "OBJECT_ID": "1993-036AG", "EPOCH": "2025-12-20T03:57:03.860064", "MEAN_MOTION": 14.43159649, "ECCENTRICITY": 0.00302648, "INCLINATION": 74.1746, "RA_OF_ASC_NODE": 23.908, "ARG_OF_PERICENTER": 219.7749, "MEAN_ANOMALY": 204.0159, "EPHEMERIS_TYPE": 0, "CLASSIFICATION_TYPE": "U", "NORAD_CAT_ID": 33791, "ELEMENT_SET_NO": 999, "REV_AT_EPOCH": 88159, "BSTAR": 0.00055419104, "MEAN_MOTION_DOT": 1.847e-05, "MEAN_MOTION_DDOT": 0}, "tle": {"line1": "1 33791U 93036AG  25354.16462801  .00001847  00000+0  55419-3 0  9997", "line2": "2 33791  74.1746  23.9080 0030264 219.7749 204.0159 14.43159649881598"}}, "geometry": {"type": "Point", "coordinates": [-145.8977045869309, -33.962345784720256]}}, {"type": "Feature", "properties": {"norad_id": 33792, "name": "COSMOS 2251 DEB", "group": "cosmos-2251-debris", "lat": 27.844474242308976, "lon": -18.449163897213495, "alt_km": 768.8175287193098, "timestamp": "2025-12-20T14:38:02.361620+00:00", "meta": {"OBJECT_NAME": "COSMOS 2251 DEB", "OBJECT_ID": "1993-036AH", "EPOCH": "2025-12-20T06:03:09.799200", "MEAN_MOTION": 13.45835621, "ECCENTRICITY": 0.04275102, "INCLINATION": 73.9011, "RA_OF_ASC_NODE": 333.3471, "ARG_OF_PERICENTER": 36.6178, "MEAN_ANOMALY": 61.4147, "EPHEMERIS_TYPE": 0, "CLASSIFICATION_TYPE": "U", "NORAD_CAT_ID": 33792, "ELEMENT_SET_NO": 999, "REV_AT_EPOCH": 82543, "BSTAR": 0.00081690796, "MEAN_MOTION_DOT": 8.27e-06, "MEAN_MOTION_DDOT": 0}, "tle": {"line1": "1 33792U 93036AH  25354.25219675  .00000827  00000+0  81691-3 0  9995", "line2": "2 33792  73.9011 333.3471 0427510  36.6178  61.4147 13.45835621825434"}}, "geometry": {"type": "Point", "coordinates": [-18.449163897213495, 27.844474242308976]}}, {"type": "Feature", "properties": {"norad_id": 33793, "name": "COSMOS 2251 DEB", "group": "cosmos-2251-debris", "lat": 23.203839851268874, "lon": 142.68876296082385, "alt_km": 807.9847611308442, "timestamp": "2025-12-20T14:38:02.361630+00:00", "meta": {"OBJECT_NAME": "COSMOS 2251 DEB", "OBJECT_ID": "1993-036AJ", "EPOCH": "2025-12-19T20:36:01.325952", "MEAN_MOTION": 14.27744552, "ECCENTRICITY": 0.00787538, "INCLINATION": 73.9804, "RA_OF_ASC_NODE": 136.9795, "ARG_OF_PERICENTER": 285.6798, "MEAN_ANOMALY": 197.1544, "EPHEMERIS_TYPE": 0, "CLASSIFICATION_TYPE": "U", "NORAD_CAT_ID": 33793, "ELEMENT_SET_NO": 999, "REV_AT_EPOCH": 87308, "BSTAR": 0.00050526759, "MEAN_MOTION_DOT": 1.263e-05, "MEAN_MOTION_DDOT": 0}, "tle": {"line1": "1 33793U 93036AJ  25353.85834868  .00001263  00000+0  50527-3 0  9997", "line2": "2 33793  73.9804 136.9795 0078753 285.6798 197.1544 14.27744552873081"}}, "geometry": {"type": "Point", "coordinates": [142.68876296082385, 23.203839851268874]}}, {"type": "Feature", "properties": {"norad_id": 33795, "name": "COSMOS 2251 DEB", "group": "cosmos-2251-debris", "lat": 14.060555781933335, "lon": 64.71030983955478, "alt_km": 562.4403415814495, "timestamp": "2025-12-20T14:38:02.361640+00:00", "meta": {"OBJECT_NAME": "COSMOS 2251 DEB", "OBJECT_ID": "1993-036AL", "EPOCH": "2025-12-20T05:07:17.170752", "MEAN_MOTION": 15.05750358, "ECCENTRICITY": 0.0030544, "INCLINATION": 74.0325, "RA_OF_ASC_NODE": 61.4106, "ARG_OF_PERICENTER": 142.2668, "MEAN_ANOMALY": 245.1489, "EPHEMERIS_TYPE": 0, "CLASSIFICATION_TYPE": "U", "NORAD_CAT_ID": 33795, "ELEMENT_SET_NO": 999, "REV_AT_EPOCH": 90134, "BSTAR": 0.00077358778, "MEAN_MOTION_DOT": 0.00011296, "MEAN_MOTION_DDOT": 0}, "tle": {"line1": "1 33795U 93036AL  25354.21339318  .00011296  00000+0  77359-3 0  9999", "line2": "2 33795  74.0325  61.4106 0030544 142.2668 245.1489 15.05750358901342"}}, "geometry": {"type": "Point", "coordinates": [64.71030983955478, 14.060555781933335]}}, {"type": "Feature", "properties": {"norad_id": 33797, "name": "COSMOS 2251 DEB", "group": "cosmos-2251-debris", "lat": -70.17608319412966, "lon": -32.512676088901074, "alt_km": 749.6789034838339, "timestamp": "2025-12-20T14:38:02.361650+00:00", "meta": {"OBJECT_NAME": "COSMOS 2251 DEB", "OBJECT_ID": "1993-036AN", "EPOCH": "2025-12-20T03:45:07.126272", "MEAN_MOTION": 14.57871469, "ECCENTRICITY": 0.00604316, "INCLINATION": 74.0465, "RA_OF_ASC_NODE": 20.8636, "ARG_OF_PERICENTER": 106.4871, "MEAN_ANOMALY": 316.6969, "EPHEMERIS_TYPE": 0, "CLASSIFICATION_TYPE": "U", "NORAD_CAT_ID": 33797, "ELEMENT_SET_NO": 999, "REV_AT_EPOCH": 89093, "BSTAR": 0.00024866943, "MEAN_MOTION_DOT": 1.138e-05, "MEAN_MOTION_DDOT": 0}, "tle": {"line1": "1 33797U 93036AN  25354.15633248  .00001138  00000+0  24867-3 0  9993", "line2": "2 33797  74.0465  20.8636 0060431 106.4871 316.6969 14.57871469890934"}}, "geometry": {"type": "Point", "coordinates": [-32.512676088901074, -70.17608319412966]}}, {"type": "Feature", "properties": {"norad_id": 33798, "name": "COSMOS 2251 DEB", "group": "cosmos-2251-debris", "lat": 33.06578381549535, "lon": -69.49866071288145, "alt_km": 746.6507865804497, "timestamp": "2025-12-20T14:38:02.361660+00:00", "meta": {"OBJECT_NAME": "COSMOS 2251 DEB", "OBJECT_ID": "1993-036AP", "EPOCH": "2025-12-19T20:15:20.972736", "MEAN_MOTION": 14.4462273, "ECCENTRICITY": 0.00924024, "INCLINATION": 74.029, "RA_OF_ASC_NODE": 122.6727, "ARG_OF_PERICENTER": 242.4984, "MEAN_ANOMALY": 243.0738, "EPHEMERIS_TYPE": 0, "CLASSIFICATION_TYPE": "U", "NORAD_CAT_ID": 33798, "ELEMENT_SET_NO": 999, "REV_AT_EPOCH": 88696, "BSTAR": 0.00012748564, "MEAN_MOTION_DOT": 4.35e-06, "MEAN_MOTION_DDOT": 0}, "tle": {"line1": "1 33798U 93036AP  25353.84399274  .00000435  00000+0  12749-3 0  9992", "line2": "2 33798  74.0290 122.6727 0092402 242.4984 243.0738 14.44622730886968"}}, "geometry": {"type": "Point", "coordinates": [-69.49866071288145, 33.06578381549535]}}]}